MEAN_MOTION;ECCENTRICITY;INCLINATION;RA_OF_ASC_NODE;ARG_OF_PERICENTER;MEAN_ANOMALY;BSTAR;MEAN_MOTION_DOT;MEAN_MOTION_DDOT;TYPE
1.00270959;0.0003069;0.8443;93.7577;265.4789;58.601;0;-2.27E-6;0;Intelsat
1.00270811;0.0003092;0.8454;93.7539;266.4918;223.4541;0;-2.29E-6;0;Intelsat
1.00270564;0.0003127;0.8471;93.7519;267.9966;110.713;0;-2.31E-6;0;Intelsat
1.00270404;0.0003147;0.8483;93.7483;269.5621;290.5682;0;-2.33E-6;0;Intelsat
1.00270263;0.000317;0.8494;93.7451;270.4946;85.1166;0;-2.34E-6;0;Intelsat
1.00270105;0.0003189;0.8508;93.7404;272.2449;290.6859;0;-2.36E-6;0;Intelsat
1.00269971;0.0003215;0.852;93.7364;273.3803;99.9577;0;-2.37E-6;0;Intelsat
1.00276501;0.0003183;0.8533;93.7325;268.4453;297.2968;0;-2.37E-6;0;Intelsat
1.00271967;0.000311;0.8558;93.7289;266.8334;318.3024;0;-2.39E-6;0;Intelsat
1.0027192;0.0003125;0.8568;93.726;267.8792;96.1728;0;-2.39E-6;0;Intelsat
1.00271738;0.0003134;0.859;93.715;270.9041;44.125;0;-2.39E-6;0;Intelsat
1.00271728;0.0003142;0.8593;93.7157;271.4175;95.4448;0;-2.38E-6;0;Intelsat
1.0027163;0.0003141;0.8616;93.7066;274.2785;69.4792;0;-2.38E-6;0;Intelsat
1.00271623;0.0003144;0.8618;93.7061;274.6163;97.5977;0;-2.37E-6;0;Intelsat
1.00271548;0.0003141;0.8641;93.6962;277.2783;75.7739;0;-2.37E-6;0;Intelsat
1.00271546;0.0003143;0.8642;93.6958;277.5673;100.6041;0;-2.36E-6;0;Intelsat
1.00271474;0.0003138;0.8664;93.6859;280.0482;69.3301;0;-2.35E-6;0;Intelsat
1.00271446;0.0003137;0.8672;93.6815;281.262;197.6988;0;-2.35E-6;0;Intelsat
1.00271397;0.000313;0.8688;93.6728;282.9539;95.1754;0;-2.34E-6;0;Intelsat
1.00271368;0.0003125;0.8694;93.6687;283.823;199.7394;0;-2.34E-6;0;Intelsat
1.00271306;0.0003121;0.871;93.6594;285.3335;84.2764;0;-2.34E-6;0;Intelsat
1.0027127;0.0003113;0.8717;93.6548;286.2649;198.3403;0;-2.34E-6;0;Intelsat
1.00273144;0.000307;0.8723;93.644;284.6926;303.5324;0;-2.33E-6;0;Intelsat
1.00273077;0.000306;0.8732;93.6395;285.3759;91.963;0;-2.33E-6;0;Intelsat
1.00272996;0.0003048;0.8743;93.6334;286.4536;278.7012;0;-2.32E-6;0;Intelsat
1.00272954;0.0003047;0.875;93.6297;286.7448;22.0377;0;-2.32E-6;0;Intelsat
1.00272916;0.0003037;0.8754;93.6276;287.2127;99.323;0;-2.32E-6;0;Intelsat
1.00272802;0.0003031;0.8766;93.622;288.5528;303.6152;0;-2.31E-6;0;Intelsat
1.0027274;0.0003025;0.8776;93.6161;289.1509;100.2032;0;-2.31E-6;0;Intelsat
1.00272557;0.000301;0.8795;93.6051;290.3844;76.8999;0;-2.3E-6;0;Intelsat
1.00272542;0.0003007;0.8797;93.6046;290.4742;101.7031;0;-2.29E-6;0;Intelsat
1.00272334;0.0002998;0.8817;93.5927;291.652;83.3041;0;-2.28E-6;0;Intelsat
1.00272074;0.0002984;0.8839;93.579;292.6222;105.1875;0;-2.26E-6;0;Intelsat
1.00272016;0.0002979;0.8843;93.5766;292.7988;180.891;0;-2.25E-6;0;Intelsat
1.00271815;0.0002975;0.8859;93.5648;293.4143;93.5707;0;-2.23E-6;0;Intelsat
1.00271651;0.0002968;0.8871;93.5574;293.8327;288.1996;0;-2.22E-6;0;Intelsat
1.00271534;0.0002971;0.888;93.5506;294.1939;83.3337;0;-2.21E-6;0;Intelsat
1.00279135;0.0002866;0.8892;93.5425;285.5792;299.2797;0;-2.19E-6;0;Intelsat
1.00276157;0.0002638;0.8898;93.5379;285.4856;43.0413;0;-2.19E-6;0;Intelsat
1.00275593;0.0002597;0.8899;93.5376;285.0573;69.3868;0;-2.18E-6;0;Intelsat
1.00271886;0.0002713;0.8909;93.5333;279.3202;230.148;0;-2.18E-6;0;Intelsat
1.00272337;0.0002737;0.8913;93.5311;278.9897;308.6806;0;-2.17E-6;0;Intelsat
1.00272306;0.0002743;0.8922;93.5248;279.0865;101.0702;0;-2.17E-6;0;Intelsat
1.00272194;0.0002753;0.893;93.5198;279.1107;232.2332;0;-2.16E-6;0;Intelsat
1.00272135;0.0002752;0.8935;93.5185;279.028;311.4678;0;-2.16E-6;0;Intelsat
1.00271979;0.0002748;0.8945;93.5105;279.4516;106.6372;0;-2.15E-6;0;Intelsat
1.00271621;0.0002759;0.8965;93.5006;280.1578;86.0981;0;-2.15E-6;0;Intelsat
1.00271598;0.0002761;0.8967;93.499;280.2665;111.5327;0;-2.15E-6;0;Intelsat
1.00271222;0.0002781;0.899;93.487;281.3113;115.2797;0;-2.15E-6;0;Intelsat
1.00271131;0.0002797;0.8997;93.4844;281.6777;212.0709;0;-2.16E-6;0;Intelsat
1.00270848;0.0002808;0.9013;93.4775;282.3784;112.0335;0;-2.17E-6;0;Intelsat
1.00270631;0.0002838;0.9027;93.4721;283.2074;318.5081;0;-2.18E-6;0;Intelsat
1.00270486;0.0002841;0.9036;93.47;283.5783;100.2127;0;-2.19E-6;0;Intelsat
1.00272723;0.0002876;0.9048;93.4655;281.6814;283.4573;0;-2.21E-6;0;Intelsat
1.00272466;0.000289;0.9061;93.4625;281.8799;108.1488;0;-2.22E-6;0;Intelsat
1.00272301;0.0002913;0.9074;93.4616;283.2055;295.8097;0;-2.24E-6;0;Intelsat
1.00272107;0.0002928;0.9086;93.4607;284.0204;112.168;0;-2.26E-6;0;Intelsat
1.00271918;0.0002951;0.9099;93.4581;285.7121;298.525;0;-2.28E-6;0;Intelsat
1.00271751;0.0002972;0.9111;93.4564;286.7401;118.9315;0;-2.29E-6;0;Intelsat
1.00271601;0.0002988;0.9123;93.4542;288.2935;298.7691;0;-2.3E-6;0;Intelsat
1.00271457;0.0003015;0.9136;93.4523;289.3781;119.0727;0;-2.32E-6;0;Intelsat
1.00271211;0.0003052;0.9159;93.4479;292.0808;95.678;0;-2.33E-6;0;Intelsat
1.00270997;0.0003092;0.9184;93.4433;294.9875;93.1852;0;-2.34E-6;0;Intelsat
1.00272013;0.0003121;0.9209;93.4423;295.9838;94.9818;0;-2.34E-6;0;Intelsat
1.00272187;0.0003124;0.923;93.4373;298.0667;43.878;0;-2.33E-6;0;Intelsat
1.00272168;0.000314;0.9242;93.4324;299.1283;217.3448;0;-2.33E-6;0;Intelsat
1.00272052;0.0003161;0.9257;93.4305;300.6247;95.9685;0;-2.32E-6;0;Intelsat
1.00271938;0.0003185;0.9266;93.4272;303.5316;218.6103;0;-2.32E-6;0;Intelsat
1.00271914;0.0003199;0.928;93.4258;304.9768;85.1092;0;-2.31E-6;0;Intelsat
1.00271874;0.0003207;0.9289;93.4232;306.0624;222.4257;0;-2.31E-6;0;Intelsat
1.00271827;0.0003225;0.9304;93.4198;307.9515;89.8993;0;-2.3E-6;0;Intelsat
1.00271756;0.0003228;0.9317;93.4148;309.2881;300.2308;0;-2.29E-6;0;Intelsat
1.00271742;0.0003239;0.9327;93.4118;310.5391;93.6321;0;-2.29E-6;0;Intelsat
1.00271667;0.0003241;0.934;93.4064;311.7291;300.6076;0;-2.29E-6;0;Intelsat
1.0027164;0.0003243;0.935;93.4033;312.8987;96.2145;0;-2.28E-6;0;Intelsat
1.00271558;0.0003243;0.9362;93.398;313.9817;301.1404;0;-2.28E-6;0;Intelsat
1.00271517;0.000324;0.9372;93.3946;314.9581;95.6821;0;-2.27E-6;0;Intelsat
1.0027142;0.0003239;0.9384;93.3898;316.0836;301.785;0;-2.27E-6;0;Intelsat
1.00271381;0.0003234;0.9391;93.3872;316.5559;45.0508;0;-2.27E-6;0;Intelsat
1.00271364;0.000323;0.9394;93.3865;316.8962;96.5448;0;-2.26E-6;0;Intelsat
1.00271079;0.0003062;0.9413;93.3527;313.9498;282.8516;0;-2.26E-6;0;Intelsat
1.00271179;0.0003215;0.9416;93.3783;318.5443;106.9739;0;-2.25E-6;0;Intelsat
1.00273906;0.0003148;0.9427;93.3741;317.2019;280.4358;0;-2.24E-6;0;Intelsat
1.00273642;0.000311;0.9437;93.3702;317.8567;90.4826;0;-2.23E-6;0;Intelsat
1.00273156;0.0003109;0.9458;93.3623;318.8103;77.1592;0;-2.21E-6;0;Intelsat
1.00273148;0.0003107;0.9459;93.3624;318.8516;93.5063;0;-2.21E-6;0;Intelsat
1.00272892;0.0003085;0.9479;93.3531;319.6692;79.0855;0;-2.18E-6;0;Intelsat
1.00272599;0.0003061;0.95;93.3443;320.8296;79.7993;0;-2.16E-6;0;Intelsat
1.00272301;0.0003038;0.9522;93.3362;321.6661;86.2067;0;-2.13E-6;0;Intelsat
1.00272281;0.0003036;0.9523;93.3359;321.6787;108.5835;0;-2.13E-6;0;Intelsat
1.00272116;0.0003021;0.9534;93.3318;322.1454;289.4462;0;-2.12E-6;0;Intelsat
1.00271983;0.0003017;0.9544;93.328;322.3542;87.9195;0;-2.11E-6;0;Intelsat
1.00271896;0.0003015;0.955;93.3256;322.5455;188.2914;0;-2.11E-6;0;Intelsat
1.00271821;0.0003007;0.9555;93.3251;322.6636;265.8907;0;-2.1E-6;0;Intelsat
1.00271647;0.0002993;0.9566;93.3211;322.7464;96.4155;0;-2.09E-6;0;Intelsat
1.00271454;0.0002987;0.9579;93.318;323.0125;294.2747;0;-2.09E-6;0;Intelsat
1.00271292;0.0002985;0.9589;93.3152;323.3439;100.8354;0;-2.08E-6;0;Intelsat
1.002711;0.0002986;0.9602;93.3121;323.7026;296.3735;0;-2.08E-6;0;Intelsat
1.00270941;0.0002985;0.9612;93.3102;324.0412;91.551;0;-2.08E-6;0;Intelsat
1.00280588;0.0002493;0.9633;93.308;299.0011;113.2776;0;-2.08E-6;0;Intelsat
1.00271992;0.0002764;0.9643;93.3036;308.5068;215.611;0;-2.1E-6;0;Intelsat
1.00271295;0.0002736;0.9658;93.3033;309.3727;85.9054;0;-2.11E-6;0;Intelsat
1.0027099;0.0002762;0.9673;93.3023;309.7283;318.792;0;-2.13E-6;0;Intelsat
1.00270678;0.0002795;0.9695;93.3024;310.989;290.1588;0;-2.16E-6;0;Intelsat
1.0027043;0.0002822;0.9715;93.3022;312.0958;201.4337;0;-2.18E-6;0;Intelsat
1.0027019;0.0002852;0.9731;93.3037;312.9912;90.6812;0;-2.21E-6;0;Intelsat
1.00270089;0.0002875;0.974;93.3037;313.9314;219.2926;0;-2.22E-6;0;Intelsat
1.00270006;0.0002889;0.9745;93.3033;314.4975;297.9759;0;-2.22E-6;0;Intelsat
1.00269881;0.000291;0.9756;93.3056;315.0409;91.4236;0;-2.24E-6;0;Intelsat
1.00269752;0.000294;0.9768;93.3055;316.5522;271.2968;0;-2.25E-6;0;Intelsat
1.00269602;0.0002977;0.9782;93.3048;317.4751;117.6843;0;-2.26E-6;0;Intelsat
1.00272578;0.0003004;0.9805;93.3101;315.4113;96.6277;0;-2.27E-6;0;Intelsat
1.0027253;0.0003053;0.9829;93.3088;318.1721;96.6802;0;-2.27E-6;0;Intelsat
1.00272483;0.0003064;0.9838;93.3083;319.332;219.6663;0;-2.27E-6;0;Intelsat
1.00272415;0.0003101;0.9853;93.3083;320.77;96.8994;0;-2.26E-6;0;Intelsat
1.00272351;0.000311;0.9865;93.3077;322.2422;276.8169;0;-2.26E-6;0;Intelsat
1.00272301;0.000315;0.9877;93.3069;323.3108;97.1676;0;-2.26E-6;0;Intelsat
1.00272231;0.0003159;0.9892;93.3034;325.3015;321.1179;0;-2.25E-6;0;Intelsat
1.0027221;0.0003187;0.9899;93.3047;326.1424;71.2192;0;-2.25E-6;0;Intelsat
1.00272126;0.0003226;0.9922;93.3019;328.6478;71.5127;0;-2.24E-6;0;Intelsat
1.00272122;0.0003231;0.9924;93.3012;328.8744;97.2029;0;-2.24E-6;0;Intelsat
1.00272045;0.0003255;0.9945;93.2968;331.0183;71.955;0;-2.23E-6;0;Intelsat
1.00271975;0.000326;0.996;93.2924;332.2916;303.9106;0;-2.23E-6;0;Intelsat
1.00271956;0.0003271;0.9968;93.2913;333.2054;72.5711;0;-2.23E-6;0;Intelsat
1.0027195;0.0003274;0.9969;93.2905;333.4308;98.2636;0;-2.22E-6;0;Intelsat
1.00271845;0.0003277;0.9991;93.2846;335.4431;89.203;0;-2.22E-6;0;Intelsat
1.0027176;0.0003276;1.0004;93.279;336.5316;305.2917;0;-2.21E-6;0;Intelsat
1.00271712;0.0003271;1.0014;93.2769;337.4325;92.9956;0;-2.21E-6;0;Intelsat
1.00271552;0.0003257;1.0036;93.2705;339.3767;96.4948;0;-2.2E-6;0;Intelsat
1.00271509;0.0003253;1.0041;93.2682;339.9128;185.9095;0;-2.2E-6;0;Intelsat
1.00271377;0.0003236;1.0056;93.2652;340.9691;76.0198;0;-2.18E-6;0;Intelsat
